ONEWEB-0311             
1 49097U 21075Y   25326.24564550  .00000025  00000+0  30146-4 0  9997
2 49097  87.9139  47.0037 0001460 108.4577 251.6713 13.17650400206372
ONEWEB-0312             
1 49098U 21075Z   25326.26083559  .00000060  00000+0  12118-3 0  9992
2 49098  87.9125  47.0278 0001458  94.5805 265.5493 13.17647670206353
ONEWEB-0313             
1 49099U 21075AA  25326.26578734  .00000365  00000+0  90566-3 0  9998
2 49099  87.9124  47.0338 0001636  99.6333 260.4984 13.17646917206341
ONEWEB-0314             
1 49100U 21075AB  25326.23214453 -.00000048  00000+0 -15620-3 0  9991
2 49100  87.9142  46.9908 0001380  96.4020 263.7269 13.17648212206318
ONEWEB-0315             
1 49101U 21075AC  25326.22549832 -.00000243  00000+0 -71041-3 0  9999
2 49101  87.8961  31.7559 0001514 110.3026 249.8265 13.12443621208025
ONEWEB-0316             
1 49102U 21075AD  25326.16776564  .00000073  00000+0  15233-3 0  9997
2 49102  87.9201  16.5858 0001771 100.1342 259.9990 13.18684673209927
ONEWEB-0317             
1 49103U 21075AE  25326.21900323 -.00000359  00000+0 -10334-2 0  9991
2 49103  87.8965  31.7743 0002358  85.3225 274.8173 13.12443100208045
ONEWEB-0318             
1 49104U 21075AF  25326.16446360 -.00000473  00000+0 -12337-2 0  9994
2 49104  87.9204  16.5745 0001546 103.6760 256.4544 13.18686969209881
ONEWEB-0319             
1 49105U 21075AG  25326.24733340  .00000039  00000+0  68549-4 0  9995
2 49105  87.9130  47.0250 0001383 107.2968 252.8315 13.17648154206357
ONEWEB-0323             
1 49106U 21075AH  25326.20927255 -.00000318  00000+0 -91960-3 0  9996
2 49106  87.8963  31.7622 0001094 109.1381 250.9866 13.12441941207400
ONEWEB-0329             
1 49107U 21075AJ  25326.25578110  .00000050  00000+0  95268-4 0  9991
2 49107  87.9124  47.0249 0001624 100.6194 259.5120 13.17648246206334
ONEWEB-0330             
1 49108U 21075AK  25326.25661172 -.00000154  00000+0 -42933-3 0  9990
2 49108  87.9127  47.0300 0001640  94.0503 266.0816 13.17650490206377
ONEWEB-0292             
1 49186U 21083A   25326.19103931 -.00000047  00000+0 -16310-3 0  9993
2 49186  87.8990   1.4056 0001656  99.0828 261.0489 13.13468953203751
ONEWEB-0303             
1 49187U 21083B   25326.16116747  .00000109  00000+0  24486-3 0  9990
2 49187  87.9207  16.5756 0001686 101.7813 258.3508 13.18684659202697
ONEWEB-0306             
1 49188U 21083C   25326.15127361  .00000105  00000+0  23322-3 0  9998
2 49188  87.9207  16.5627 0002020  94.0551 266.0812 13.18684488202730
ONEWEB-0307             
1 49189U 21083D   25326.10892559  .00000143  00000+0  35552-3 0  9992
2 49189  87.8986   1.4142 0001801  96.3814 263.7521 13.13467995203742
ONEWEB-0320             
1 49190U 21083E   25326.15869447 -.00000196  00000+0 -52905-3 0  9990
2 49190  87.9199  16.5909 0001884  98.2057 261.9289 13.18686445202692
