[{"OBJECT_NAME":"ONEWEB-0311","OBJECT_ID":"2021-075Y","EPOCH":"2025-11-22T05:53:43.771200","MEAN_MOTION":13.176504,"ECCENTRICITY":0.000146,"INCLINATION":87.9139,"RA_OF_ASC_NODE":47.0037,"ARG_OF_PERICENTER":108.4577,"MEAN_ANOMALY":251.6713,"EPHEMERIS_TYPE":0,"CLASSIFICATION_TYPE":"U","NORAD_CAT_ID":49097,"ELEMENT_SET_NO":999,"REV_AT_EPOCH":20637,"BSTAR":3.0146e-5,"MEAN_MOTION_DOT":2.5e-7,"MEAN_MOTION_DDOT":0},{"OBJECT_NAME":"ONEWEB-0312","OBJECT_ID":"2021-075Z","EPOCH":"2025-11-22T06:15:36.194976","MEAN_MOTION":13.1764767,"ECCENTRICITY":0.0001458,"INCLINATION":87.9125,"RA_OF_ASC_NODE":47.0278,"ARG_OF_PERICENTER":94.5805,"MEAN_ANOMALY":265.5493,"EPHEMERIS_TYPE":0,"CLASSIFICATION_TYPE":"U","NORAD_CAT_ID":49098,"ELEMENT_SET_NO":999,"REV_AT_EPOCH":20635,"BSTAR":0.00012118,"MEAN_MOTION_DOT":6.0e-7,"MEAN_MOTION_DDOT":0},{"OBJECT_NAME":"ONEWEB-0313","OBJECT_ID":"2021-075AA","EPOCH":"2025-11-22T06:22:44.026176","MEAN_MOTION":13.17646917,"ECCENTRICITY":0.0001636,"INCLINATION":87.9124,"RA_OF_ASC_NODE":47.0338,"ARG_OF_PERICENTER":99.6333,"MEAN_ANOMALY":260.4984,"EPHEMERIS_TYPE":0,"CLASSIFICATION_TYPE":"U","NORAD_CAT_ID":49099,"ELEMENT_SET_NO":999,"REV_AT_EPOCH":20634,"BSTAR":0.00090566,"MEAN_MOTION_DOT":3.65e-6,"MEAN_MOTION_DDOT":0},{"OBJECT_NAME":"ONEWEB-0314","OBJECT_ID":"2021-075AB","EPOCH":"2025-11-22T05:34:17.287392","MEAN_MOTION":13.17648212,"ECCENTRICITY":0.000138,"INCLINATION":87.9142,"RA_OF_ASC_NODE":46.9908,"ARG_OF_PERICENTER":96.402,"MEAN_ANOMALY":263.7269,"EPHEMERIS_TYPE":0,"CLASSIFICATION_TYPE":"U","NORAD_CAT_ID":49100,"ELEMENT_SET_NO":999,"REV_AT_EPOCH":20631,"BSTAR":-0.0001562,"MEAN_MOTION_DOT":-4.8e-7,"MEAN_MOTION_DDOT":0},{"OBJECT_NAME":"ONEWEB-0315","OBJECT_ID":"2021-075AC","EPOCH":"2025-11-22T05:24:43.054848","MEAN_MOTION":13.12443621,"ECCENTRICITY":0.0001514,"INCLINATION":87.8961,"RA_OF_ASC_NODE":31.7559,"ARG_OF_PERICENTER":110.3026,"MEAN_ANOMALY":249.8265,"EPHEMERIS_TYPE":0,"CLASSIFICATION_TYPE":"U","NORAD_CAT_ID":49101,"ELEMENT_SET_NO":999,"REV_AT_EPOCH":20802,"BSTAR":-0.00071041,"MEAN_MOTION_DOT":-2.43e-6,"MEAN_MOTION_DDOT":0},{"OBJECT_NAME":"ONEWEB-0316","OBJECT_ID":"2021-075AD","EPOCH":"2025-11-22T04:01:34.951296","MEAN_MOTION":13.18684673,"ECCENTRICITY":0.0001771,"INCLINATION":87.9201,"RA_OF_ASC_NODE":16.5858,"ARG_OF_PERICENTER":100.1342,"MEAN_ANOMALY":259.999,"EPHEMERIS_TYPE":0,"CLASSIFICATION_TYPE":"U","NORAD_CAT_ID":49102,"ELEMENT_SET_NO":999,"REV_AT_EPOCH":20992,"BSTAR":0.00015233,"MEAN_MOTION_DOT":7.3e-7,"MEAN_MOTION_DDOT":0},{"OBJECT_NAME":"ONEWEB-0317","OBJECT_ID":"2021-075AE","EPOCH":"2025-11-22T05:15:21.879072","MEAN_MOTION":13.124431,"ECCENTRICITY":0.0002358,"INCLINATION":87.8965,"RA_OF_ASC_NODE":31.7743,"ARG_OF_PERICENTER":85.3225,"MEAN_ANOMALY":274.8173,"EPHEMERIS_TYPE":0,"CLASSIFICATION_TYPE":"U","NORAD_CAT_ID":49103,"ELEMENT_SET_NO":999,"REV_AT_EPOCH":20804,"BSTAR":-0.0010334,"MEAN_MOTION_DOT":-3.59e-6,"MEAN_MOTION_DDOT":0},{"OBJECT_NAME":"ONEWEB-0318","OBJECT_ID":"2021-075AF","EPOCH":"2025-11-22T03:56:49.655040","MEAN_MOTION":13.18686969,"ECCENTRICITY":0.0001546,"INCLINATION":87.9204,"RA_OF_ASC_NODE":16.5745,"ARG_OF_PERICENTER":103.676,"MEAN_ANOMALY":256.4544,"EPHEMERIS_TYPE":0,"CLASSIFICATION_TYPE":"U","NORAD_CAT_ID":49104,"ELEMENT_SET_NO":999,"REV_AT_EPOCH":20988,"BSTAR":-0.0012337,"MEAN_MOTION_DOT":-4.73e-6,"MEAN_MOTION_DDOT":0},{"OBJECT_NAME":"ONEWEB-0319","OBJECT_ID":"2021-075AG","EPOCH":"2025-11-22T05:56:09.605760","MEAN_MOTION":13.17648154,"ECCENTRICITY":0.0001383,"INCLINATION":87.913,"RA_OF_ASC_NODE":47.025,"ARG_OF_PERICENTER":107.2968,"MEAN_ANOMALY":252.8315,"EPHEMERIS_TYPE":0,"CLASSIFICATION_TYPE":"U","NORAD_CAT_ID":49105,"ELEMENT_SET_NO":999,"REV_AT_EPOCH":20635,"BSTAR":6.8549e-5,"MEAN_MOTION_DOT":3.9e-7,"MEAN_MOTION_DDOT":0},{"OBJECT_NAME":"ONEWEB-0323","OBJECT_ID":"2021-075AH","EPOCH":"2025-11-22T05:01:21.148320","MEAN_MOTION":13.12441941,"ECCENTRICITY":0.0001094,"INCLINATION":87.8963,"RA_OF_ASC_NODE":31.7622,"ARG_OF_PERICENTER":109.1381,"MEAN_ANOMALY":250.9866,"EPHEMERIS_TYPE":0,"CLASSIFICATION_TYPE":"U","NORAD_CAT_ID":49106,"ELEMENT_SET_NO":999,"REV_AT_EPOCH":20740,"BSTAR":-0.0009196,"MEAN_MOTION_DOT":-3.18e-6,"MEAN_MOTION_DDOT":0},{"OBJECT_NAME":"ONEWEB-0329","OBJECT_ID":"2021-075AJ","EPOCH":"2025-11-22T06:08:19.487040","MEAN_MOTION":13.17648246,"ECCENTRICITY":0.0001624,"INCLINATION":87.9124,"RA_OF_ASC_NODE":47.0249,"ARG_OF_PERICENTER":100.6194,"MEAN_ANOMALY":259.512,"EPHEMERIS_TYPE":0,"CLASSIFICATION_TYPE":"U","NORAD_CAT_ID":49107,"ELEMENT_SET_NO":999,"REV_AT_EPOCH":20633,"BSTAR":9.5268e-5,"MEAN_MOTION_DOT":5.0e-7,"MEAN_MOTION_DDOT":0},{"OBJECT_NAME":"ONEWEB-0330","OBJECT_ID":"2021-075AK","EPOCH":"2025-11-22T06:09:31.252608","MEAN_MOTION":13.1765049,"ECCENTRICITY":0.000164,"INCLINATION":87.9127,"RA_OF_ASC_NODE":47.03,"ARG_OF_PERICENTER":94.0503,"MEAN_ANOMALY":266.0816,"EPHEMERIS_TYPE":0,"CLASSIFICATION_TYPE":"U","NORAD_CAT_ID":49108,"ELEMENT_SET_NO":999,"REV_AT_EPOCH":20637,"BSTAR":-0.00042933,"MEAN_MOTION_DOT":-1.54e-6,"MEAN_MOTION_DDOT":0},{"OBJECT_NAME":"ONEWEB-0292","OBJECT_ID":"2021-083A","EPOCH":"2025-11-22T04:35:05.796384","MEAN_MOTION":13.13468953,"ECCENTRICITY":0.0001656,"INCLINATION":87.899,"RA_OF_ASC_NODE":1.4056,"ARG_OF_PERICENTER":99.0828,"MEAN_ANOMALY":261.0489,"EPHEMERIS_TYPE":0,"CLASSIFICATION_TYPE":"U","NORAD_CAT_ID":49186,"ELEMENT_SET_NO":999,"REV_AT_EPOCH":20375,"BSTAR":-0.0001631,"MEAN_MOTION_DOT":-4.7e-7,"MEAN_MOTION_DDOT":0},{"OBJECT_NAME":"ONEWEB-0303","OBJECT_ID":"2021-083B","EPOCH":"2025-11-22T03:52:04.869408","MEAN_MOTION":13.18684659,"ECCENTRICITY":0.0001686,"INCLINATION":87.9207,"RA_OF_ASC_NODE":16.5756,"ARG_OF_PERICENTER":101.7813,"MEAN_ANOMALY":258.3508,"EPHEMERIS_TYPE":0,"CLASSIFICATION_TYPE":"U","NORAD_CAT_ID":49187,"ELEMENT_SET_NO":999,"REV_AT_EPOCH":20269,"BSTAR":0.00024486,"MEAN_MOTION_DOT":1.09e-6,"MEAN_MOTION_DDOT":0},{"OBJECT_NAME":"ONEWEB-0306","OBJECT_ID":"2021-083C","EPOCH":"2025-11-22T03:37:50.039904","MEAN_MOTION":13.18684488,"ECCENTRICITY":0.000202,"INCLINATION":87.9207,"RA_OF_ASC_NODE":16.5627,"ARG_OF_PERICENTER":94.0551,"MEAN_ANOMALY":266.0812,"EPHEMERIS_TYPE":0,"CLASSIFICATION_TYPE":"U","NORAD_CAT_ID":49188,"ELEMENT_SET_NO":999,"REV_AT_EPOCH":20273,"BSTAR":0.00023322,"MEAN_MOTION_DOT":1.05e-6,"MEAN_MOTION_DDOT":0},{"OBJECT_NAME":"ONEWEB-0307","OBJECT_ID":"2021-083D","EPOCH":"2025-11-22T02:36:51.170976","MEAN_MOTION":13.13467995,"ECCENTRICITY":0.0001801,"INCLINATION":87.8986,"RA_OF_ASC_NODE":1.4142,"ARG_OF_PERICENTER":96.3814,"MEAN_ANOMALY":263.7521,"EPHEMERIS_TYPE":0,"CLASSIFICATION_TYPE":"U","NORAD_CAT_ID":49189,"ELEMENT_SET_NO":999,"REV_AT_EPOCH":20374,"BSTAR":0.00035552,"MEAN_MOTION_DOT":1.43e-6,"MEAN_MOTION_DDOT":0},{"OBJECT_NAME":"ONEWEB-0320","OBJECT_ID":"2021-083E","EPOCH":"2025-11-22T03:48:31.202208","MEAN_MOTION":13.18686445,"ECCENTRICITY":0.0001884,"INCLINATION":87.9199,"RA_OF_ASC_NODE":16.5909,"ARG_OF_PERICENTER":98.2057,"MEAN_ANOMALY":261.9289,"EPHEMERIS_TYPE":0,"CLASSIFICATION_TYPE":"U","NORAD_CAT_ID":49190,"ELEMENT_SET_NO":999,"REV_AT_EPOCH":20269,"BSTAR":-0.00052905,"MEAN_MOTION_DOT":-1.96e-6,"MEAN_MOTION_DDOT":0}]
